NORAD_CAT_ID,OBJECT_NAME,OBJECT_TYPE,EPOCH,MEAN_MOTION,ECCENTRICITY,INCLINATION,RA_OF_ASC_NODE,ARG_OF_PERICENTER,MEAN_ANOMALY,BSTAR,MEAN_MOTION_DOT,MEAN_MOTION_DDOT,TLE_LINE0,TLE_LINE1,TLE_LINE2,SEMIMAJOR_AXIS,PERIOD,APOGEE,PERIGEE,DECAYED
56778.0,STARLINK-6304,PAYLOAD,2024-01-20 15:03:40,14.98326246,0.0002631,70.0007,128.9103,260.6501,99.4361,-3.1348e-05,-4.67e-06,0.0,0 STARLINK-6304,1 56778U 23078M   24020.62755550 -.00000467  00000-0 -31348-4 0  9998,2 56778  70.0007 128.9103 0002631 260.6501  99.4361 14.98326246 36472,6950.204,96.107,573.898,570.241,0.0
56778.0,STARLINK-6304,PAYLOAD,2024-01-20 16:39:48,14.9832678,0.000263,70.0007,128.7421,260.9807,99.1055,-2.6164e-05,-4.05e-06,0.0,0 STARLINK-6304,1 56778U 23078M   24020.69431510 -.00000405  00000-0 -26164-4 0  9994,2 56778  70.0007 128.7421 0002630 260.9807  99.1055 14.98326780 36485,6950.203,96.107,573.896,570.24,0.0
56778.0,STARLINK-6304,PAYLOAD,2024-01-21 07:05:01,14.98333852,0.0002613,70.0006,127.2272,262.6687,97.4175,-5.2835e-05,-7.23e-06,0.0,0 STARLINK-6304,1 56778U 23078M   24021.29515105 -.00000723  00000-0 -52835-4 0  9991,2 56778  70.0006 127.2272 0002613 262.6687  97.4175 14.98333852 36570,6950.181,96.107,573.862,570.23,0.0
56778.0,STARLINK-6304,PAYLOAD,2024-01-21 11:53:25,14.98333967,0.0002614,70.0007,126.7218,260.2095,99.8769,-4.7451e-05,-6.59e-06,0.0,0 STARLINK-6304,1 56778U 23078M   24021.49543010 -.00000659  00000-0 -47451-4 0  9995,2 56778  70.0007 126.7218 0002614 260.2095  99.8769 14.98333967 36867,6950.181,96.107,573.862,570.229,0.0
56778.0,STARLINK-6304,PAYLOAD,2024-01-21 16:41:49,14.98336041,0.0002584,70.0008,126.2171,259.9264,100.1604,-1.9053e-05,-3.2e-06,0.0,0 STARLINK-6304,1 56778U 23078M   24021.69570732 -.00000320  00000-0 -19053-4 0  9990,2 56778  70.0008 126.2171 0002584 259.9264 100.1604 14.98336041 36635,6950.174,96.107,573.835,570.243,0.0
56778.0,STARLINK-6304,PAYLOAD,2024-01-22 07:07:01,14.98326426,0.000251,70.001,124.7024,258.3352,101.7526,3.8892e-05,3.71e-06,0.0,0 STARLINK-6304,1 56778U 23078M   24022.29655055  .00000371  00000-0  38892-4 0  9995,2 56778  70.0010 124.7024 0002510 258.3352 101.7526 14.98326426 36724,6950.204,96.107,573.813,570.324,0.0
56778.0,STARLINK-6304,PAYLOAD,2024-01-22 11:55:26,14.98326103,0.0002519,70.0011,124.1975,258.4741,101.6135,3.1775e-05,2.86e-06,0.0,0 STARLINK-6304,1 56778U 23078M   24022.49683132  .00000286  00000-0  31775-4 0  9992,2 56778  70.0011 124.1975 0002519 258.4741 101.6135 14.98326103 37016,6950.205,96.107,573.821,570.319,0.0
56778.0,STARLINK-6304,PAYLOAD,2024-01-22 16:43:50,14.98327046,0.0002527,70.0011,123.6928,259.5514,100.536,3.7857e-05,3.59e-06,0.0,0 STARLINK-6304,1 56778U 23078M   24022.69711097  .00000359  00000-0  37857-4 0  9994,2 56778  70.0011 123.6928 0002527 259.5514 100.5360 14.98327046 36785,6950.202,96.107,573.823,570.311,0.0
56778.0,STARLINK-6304,PAYLOAD,2024-01-23 07:09:02,14.98334706,0.0002584,70.0009,122.1782,260.4501,99.6366,3.9476e-06,-4.6e-07,0.0,0 STARLINK-6304,1 56778U 23078M   24023.29794664 -.00000046  00000-0  39476-5 0  9996,2 56778  70.0009 122.1782 0002584 260.4501  99.6366 14.98334706 36879,6950.178,96.107,573.839,570.247,0.0
56778.0,STARLINK-6304,PAYLOAD,2024-01-23 11:57:26,14.98336846,0.00023,70.0009,121.6727,253.5246,106.5661,-3.6234e-05,-5.25e-06,0.0,0 STARLINK-6304,1 56778U 23078M   24023.49822585 -.00000525  00000-0 -36234-4 0  9993,2 56778  70.0009 121.6727 0002300 253.5246 106.5661 14.98336846 37163,6950.172,96.107,573.635,570.438,0.0
56778.0,STARLINK-6304,PAYLOAD,2024-01-23 16:45:49,14.98370951,0.000233,70.0009,121.168,250.6339,109.4569,-0.0005616,-6.794e-05,0.0,0 STARLINK-6304,1 56778U 23078M   24023.69849483 -.00006794  00000-0 -56160-3 0  9994,2 56778  70.0009 121.1680 0002330 250.6339 109.4569 14.98370951 37197,6950.066,96.104,573.551,570.312,0.0
56778.0,STARLINK-6304,PAYLOAD,2024-01-24 11:59:28,14.98323706,0.0002611,70.0007,119.1488,255.9296,104.1573,-6.7631e-05,-9e-06,0.0,0 STARLINK-6304,1 56778U 23078M   24024.49963487 -.00000900  00000-0 -67631-4 0  9993,2 56778  70.0007 119.1488 0002611 255.9296 104.1573 14.98323706 37317,6950.212,96.107,573.892,570.263,0.0
56778.0,STARLINK-6304,PAYLOAD,2024-01-24 13:35:36,14.98323221,0.0002552,70.001,118.9813,243.8481,116.2416,-5.8198e-05,-7.87e-06,0.0,0 STARLINK-6304,1 56778U 23078M   24024.56639486 -.00000787  00000-0 -58198-4 0  9991,2 56778  70.0010 118.9813 0002552 243.8481 116.2416 14.98323221 37060,6950.214,96.107,573.853,570.305,0.0
56778.0,STARLINK-6304,PAYLOAD,2024-01-24 15:11:44,14.98323351,0.0002708,70.0001,118.8108,262.8389,97.2462,-7.1511e-05,-9.46e-06,0.0,0 STARLINK-6304,1 56778U 23078M   24024.63315609 -.00000946  00000-0 -71511-4 0  9998,2 56778  70.0001 118.8108 0002708 262.8389  97.2462 14.98323351 37071,6950.213,96.107,573.961,570.196,0.0
56778.0,STARLINK-6304,PAYLOAD,2024-01-25 12:01:29,14.98330157,0.0002558,69.9998,116.6223,248.4832,111.6054,-6.5713e-05,-8.77e-06,0.0,0 STARLINK-6304,1 56778U 23078M   24025.50103309 -.00000877  00000-0 -65713-4 0  9997,2 56778  69.9998 116.6223 0002558 248.4832 111.6054 14.98330157 37466,6950.192,96.107,573.835,570.28,0.0
56778.0,STARLINK-6304,PAYLOAD,2024-01-25 13:37:37,14.98331897,0.0002735,70.0,116.4543,259.1492,100.9359,-3.1698e-05,-4.71e-06,0.0,0 STARLINK-6304,1 56778U 23078M   24025.56779106 -.00000471  00000-0 -31698-4 0  9992,2 56778  70.0000 116.4543 0002735 259.1492 100.9359 14.98331897 37218,6950.187,96.107,573.953,570.151,0.0
56778.0,STARLINK-6304,PAYLOAD,2024-01-25 15:13:45,14.98332116,0.0002713,70.0001,116.2862,258.4485,101.637,-2.4172e-05,-3.81e-06,0.0,0 STARLINK-6304,1 56778U 23078M   24025.63455065 -.00000381  00000-0 -24172-4 0  9994,2 56778  70.0001 116.2862 0002713 258.4485 101.6370 14.98332116 37228,6950.186,96.107,573.937,570.166,0.0
56778.0,STARLINK-6304,PAYLOAD,2024-01-26 12:03:29,14.98332323,0.0002682,69.9998,114.0974,261.6535,98.432,0.00012543,1.404e-05,0.0,0 STARLINK-6304,1 56778U 23078M   24026.50242573  .00001404  00000-0  12543-3 0  9992,2 56778  69.9998 114.0974 0002682 261.6535  98.4320 14.98332323 37618,6950.186,96.107,573.915,570.187,0.0
56778.0,STARLINK-6304,PAYLOAD,2024-01-26 13:39:37,14.98334578,0.0002612,70.0,113.9294,258.6444,101.4422,0.00015255,1.728e-05,0.0,0 STARLINK-6304,1 56778U 23078M   24026.56918322  .00001728  00000-0  15255-3 0  9992,2 56778  70.0000 113.9294 0002612 258.6444 101.4422 14.98334578 37360,6950.179,96.107,573.859,570.228,0.0
56778.0,STARLINK-6304,PAYLOAD,2024-01-27 12:05:31,14.98324431,0.0002488,70.0008,111.5737,248.3995,111.6899,-6.5227e-05,-8.71e-06,0.0,0 STARLINK-6304,1 56778U 23078M   24027.50383518 -.00000871  00000-0 -65227-4 0  9995,2 56778  70.0008 111.5737 0002488 248.3995 111.6899 14.98324431 37764,6950.21,96.107,573.804,570.346,0.0
56778.0,STARLINK-6304,PAYLOAD,2024-01-27 13:41:39,14.98321951,0.0002526,70.0006,111.4053,251.4295,108.659,-9.6091e-05,-1.239e-05,0.0,0 STARLINK-6304,1 56778U 23078M   24027.57059799 -.00001239  00000-0 -96091-4 0  9995,2 56778  70.0006 111.4053 0002526 251.4295 108.6590 14.98321951 37514,6950.218,96.108,573.838,570.327,0.0
56778.0,STARLINK-6304,PAYLOAD,2024-01-27 15:17:47,14.9832232,0.0002529,70.0006,111.237,252.1612,107.9272,-9.1693e-05,-1.187e-05,0.0,0 STARLINK-6304,1 56778U 23078M   24027.63735791 -.00001187  00000-0 -91693-4 0  9990,2 56778  70.0006 111.2370 0002529 252.1612 107.9272 14.98322320 37529,6950.217,96.107,573.839,570.324,0.0
56778.0,STARLINK-6304,PAYLOAD,2024-01-28 12:07:31,14.9833326,0.000284,69.9998,109.0473,263.8246,96.2589,-4.2179e-05,-5.96e-06,0.0,0 STARLINK-6304,1 56778U 23078M   24028.50522920 -.00000596  00000-0 -42179-4 0  9993,2 56778  69.9998 109.0473 0002840 263.8246  96.2589 14.98333260 37912,6950.183,96.107,574.022,570.074,0.0
56778.0,STARLINK-6304,PAYLOAD,2024-01-28 13:43:39,14.98335807,0.000283,69.9998,108.879,263.0095,97.0742,-4.171e-05,-5.91e-06,0.0,0 STARLINK-6304,1 56778U 23078M   24028.57198730 -.00000591  00000-0 -41710-4 0  9993,2 56778  69.9998 108.8790 0002830 263.0095  97.0742 14.98335807 37665,6950.175,96.107,574.007,570.073,0.0
56778.0,STARLINK-6304,PAYLOAD,2024-01-28 15:19:47,14.98335998,0.0002841,69.9998,108.7107,263.5825,96.5011,-3.6935e-05,-5.34e-06,0.0,0 STARLINK-6304,1 56778U 23078M   24028.63874685 -.00000534  00000-0 -36935-4 0  9990,2 56778  69.9998 108.7107 0002841 263.5825  96.5011 14.98335998 37679,6950.174,96.107,574.014,570.065,0.0
56778.0,STARLINK-6304,PAYLOAD,2024-01-29 12:09:32,14.98330029,0.0002813,69.9998,106.5231,261.2084,98.8756,0.00019951,2.288e-05,0.0,0 STARLINK-6304,1 56778U 23078M   24029.50662181  .00002288  00000-0  19951-3 0  9997,2 56778  69.9998 106.5231 0002813 261.2084  98.8756 14.98330029 38069,6950.193,96.107,574.013,570.103,0.0
56778.0,STARLINK-6304,PAYLOAD,2024-01-30 12:11:33,14.98329434,0.0002623,70.0006,103.9989,255.4724,104.6144,-2.814e-05,-4.29e-06,0.0,0 STARLINK-6304,1 56778U 23078M   24030.50802754 -.00000429  00000-0 -28140-4 0  9999,2 56778  70.0006 103.9989 0002623 255.4724 104.6144 14.98329434 38210,6950.195,96.107,573.883,570.237,0.0
56778.0,STARLINK-6304,PAYLOAD,2024-01-30 13:47:41,14.98328984,0.0002632,70.0005,103.8301,257.3271,102.7594,-3.0078e-05,-4.52e-06,0.0,0 STARLINK-6304,1 56778U 23078M   24030.57478780 -.00000452  00000-0 -30078-4 0  9993,2 56778  70.0005 103.8301 0002632 257.3271 102.7594 14.98328984 37962,6950.196,96.107,573.89,570.232,0.0
56778.0,STARLINK-6304,PAYLOAD,2024-01-30 15:23:49,14.98329233,0.0002667,70.0004,103.6615,258.3619,101.724,-2.3868e-05,-3.78e-06,0.0,0 STARLINK-6304,1 56778U 23078M   24030.64154738 -.00000378  00000-0 -23868-4 0  9991,2 56778  70.0004 103.6615 0002667 258.3619 101.7240 14.98329233 37978,6950.195,96.107,573.914,570.207,0.0
56778.0,STARLINK-6304,PAYLOAD,2024-01-31 12:13:34,14.98320871,0.0002769,70.0001,101.4733,255.0394,105.0458,0.00014825,1.676e-05,0.0,0 STARLINK-6304,1 56778U 23078M   24031.50942654  .00001676  00000-0  14825-3 0  9991,2 56778  70.0001 101.4733 0002769 255.0394 105.0458 14.98320871 38360,6950.221,96.108,574.011,570.162,0.0
